{
  "type": "FeatureCollection",
  "features": [
    {
      "type": "Feature",
      "properties": {
        "norad_id": 27954,
        "name": "GALAXY 13 (HORIZONS-1)",
        "group": "intelsat",
        "lat": 0.9564127225425675,
        "lon": 164.19126604523538,
        "alt_km": 35788.70930001082,
        "timestamp": "2025-12-24T14:43:28.663168+00:00",
        "meta_object_name": "GALAXY 13 (HORIZONS-1)",
        "meta_object_id": "2003-044A",
        "meta_epoch": "2025-12-24T04:18:50.176224",
        "meta_mean_motion": 1.00271453,
        "meta_eccentricity": 0.00023344,
        "meta_inclination": 0.9663,
        "meta_ra_of_asc_node": 86.3197,
        "meta_arg_of_pericenter": 183.7359,
        "meta_mean_anomaly": 97.5809,
        "meta_ephemeris_type": 0,
        "meta_classification_type": "U",
        "meta_norad_cat_id": 27954,
        "meta_element_set_no": 999,
        "meta_rev_at_epoch": 4481,
        "meta_bstar": 0,
        "meta_mean_motion_dot": 1.53e-06,
        "meta_mean_motion_ddot": 0,
        "tle_line1": "1 27954U 03044A   25358.17974741  .00000153  00000+0  00000+0 0  9998",
        "tle_line2": "2 27954   0.9663  86.3197 0002334 183.7359  97.5809  1.00271453 44813"
      },
      "geometry": {
        "type": "Point",
        "coordinates": [
          164.19126604523538,
          0.9564127225425675
        ]
      }
    },
    {
      "type": "Feature",
      "properties": {
        "norad_id": 28358,
        "name": "INTELSAT 10-02",
        "group": "intelsat",
        "lat": -0.03203554363078326,
        "lon": -46.722683611461285,
        "alt_km": 35782.1679061179,
        "timestamp": "2025-12-24T14:43:28.663180+00:00",
        "meta_object_name": "INTELSAT 10-02",
        "meta_object_id": "2004-022A",
        "meta_epoch": "2025-12-24T02:38:38.492736",
        "meta_mean_motion": 1.00266508,
        "meta_eccentricity": 0.00012757,
        "meta_inclination": 0.0148,
        "meta_ra_of_asc_node": 53.5319,
        "meta_arg_of_pericenter": 261.4537,
        "meta_mean_anomaly": 176.6028,
        "meta_ephemeris_type": 0,
        "meta_classification_type": "U",
        "meta_norad_cat_id": 28358,
        "meta_element_set_no": 999,
        "meta_rev_at_epoch": 7880,
        "meta_bstar": 0,
        "meta_mean_motion_dot": 9e-08,
        "meta_mean_motion_ddot": 0,
        "tle_line1": "1 28358U 04022A   25358.11016774  .00000009  00000+0  00000+0 0  9991",
        "tle_line2": "2 28358   0.0148  53.5319 0001275 261.4537 176.6028  1.00266508 78801"
      },
      "geometry": {
        "type": "Point",
        "coordinates": [
          -46.722683611461285,
          -0.03203554363078326
        ]
      }
    },
    {
      "type": "Feature",
      "properties": {
        "norad_id": 28626,
        "name": "XM-3 (RHYTHM)",
        "group": "intelsat",
        "lat": -0.19051937382958503,
        "lon": 12.101846453527346,
        "alt_km": 36152.08205664453,
        "timestamp": "2025-12-24T14:43:28.663193+00:00",
        "meta_object_name": "XM-3 (RHYTHM)",
        "meta_object_id": "2005-008A",
        "meta_epoch": "2025-12-24T04:49:30.196416",
        "meta_mean_motion": 0.98950005,
        "meta_eccentricity": 0.0002119,
        "meta_inclination": 0.2024,
        "meta_ra_of_asc_node": 82.1628,
        "meta_arg_of_pericenter": 274.8178,
        "meta_mean_anomaly": 228.1838,
        "meta_ephemeris_type": 0,
        "meta_classification_type": "U",
        "meta_norad_cat_id": 28626,
        "meta_element_set_no": 999,
        "meta_rev_at_epoch": 4086,
        "meta_bstar": 0,
        "meta_mean_motion_dot": 9.9e-07,
        "meta_mean_motion_ddot": 0,
        "tle_line1": "1 28626U 05008A   25358.20104394  .00000099  00000+0  00000+0 0  9999",
        "tle_line2": "2 28626   0.2024  82.1628 0002119 274.8178 228.1838  0.98950005 40867"
      },
      "geometry": {
        "type": "Point",
        "coordinates": [
          12.101846453527346,
          -0.19051937382958503
        ]
      }
    },
    {
      "type": "Feature",
      "properties": {
        "norad_id": 28659,
        "name": "DIRECTV 8",
        "group": "intelsat",
        "lat": 0.0032934359546498075,
        "lon": -164.8268653007473,
        "alt_km": 35785.513664199476,
        "timestamp": "2025-12-24T14:43:28.663205+00:00",
        "meta_object_name": "DIRECTV 8",
        "meta_object_id": "2005-019A",
        "meta_epoch": "2025-12-24T05:59:38.935680",
        "meta_mean_motion": 1.00271682,
        "meta_eccentricity": 0.00029824,
        "meta_inclination": 0.0189,
        "meta_ra_of_asc_node": 24.3341,
        "meta_arg_of_pericenter": 258.2717,
        "meta_mean_anomaly": 141.2924,
        "meta_ephemeris_type": 0,
        "meta_classification_type": "U",
        "meta_norad_cat_id": 28659,
        "meta_element_set_no": 999,
        "meta_rev_at_epoch": 7531,
        "meta_bstar": 0,
        "meta_mean_motion_dot": 2.2e-07,
        "meta_mean_motion_ddot": 0,
        "tle_line1": "1 28659U 05019A   25358.24975620  .00000022  00000+0  00000+0 0  9995",
        "tle_line2": "2 28659   0.0189  24.3341 0002982 258.2717 141.2924  1.00271682 75316"
      },
      "geometry": {
        "type": "Point",
        "coordinates": [
          -164.8268653007473,
          0.0032934359546498075
        ]
      }
    },
    {
      "type": "Feature",
      "properties": {
        "norad_id": 28702,
        "name": "GALAXY 28 (G-28)",
        "group": "intelsat",
        "lat": 1.417655228488378,
        "lon": -128.93634902867385,
        "alt_km": 35679.23169879573,
        "timestamp": "2025-12-24T14:43:28.663216+00:00",
        "meta_object_name": "GALAXY 28 (G-28)",
        "meta_object_id": "2005-022A",
        "meta_epoch": "2025-12-24T06:03:53.042400",
        "meta_mean_motion": 1.00599953,
        "meta_eccentricity": 0.00035926,
        "meta_inclination": 2.8492,
        "meta_ra_of_asc_node": 81.1468,
        "meta_arg_of_pericenter": 158.62,
        "meta_mean_anomaly": 220.595,
        "meta_ephemeris_type": 0,
        "meta_classification_type": "U",
        "meta_norad_cat_id": 28702,
        "meta_element_set_no": 999,
        "meta_rev_at_epoch": 5022,
        "meta_bstar": 0,
        "meta_mean_motion_dot": -2.25e-06,
        "meta_mean_motion_ddot": 0,
        "tle_line1": "1 28702U 05022A   25358.25269725 -.00000225  00000+0  00000+0 0  9997",
        "tle_line2": "2 28702   2.8492  81.1468 0003592 158.6200 220.5950  1.00599953 50228"
      },
      "geometry": {
        "type": "Point",
        "coordinates": [
          -128.93634902867385,
          1.417655228488378
        ]
      }
    },
    {
      "type": "Feature",
      "properties": {
        "norad_id": 29236,
        "name": "GALAXY 16 (G-16)",
        "group": "intelsat",
        "lat": -0.013297960427010884,
        "lon": -144.78911715347053,
        "alt_km": 35781.03569873987,
        "timestamp": "2025-12-24T14:43:28.663228+00:00",
        "meta_object_name": "GALAXY 16 (G-16)",
        "meta_object_id": "2006-023A",
        "meta_epoch": "2025-12-24T05:18:53.057952",
        "meta_mean_motion": 1.00271028,
        "meta_eccentricity": 0.00025652,
        "meta_inclination": 0.0389,
        "meta_ra_of_asc_node": 202.1465,
        "meta_arg_of_pericenter": 74.0463,
        "meta_mean_anomaly": 157.5166,
        "meta_ephemeris_type": 0,
        "meta_classification_type": "U",
        "meta_norad_cat_id": 29236,
        "meta_element_set_no": 999,
        "meta_rev_at_epoch": 7121,
        "meta_bstar": 0,
        "meta_mean_motion_dot": -1.06e-06,
        "meta_mean_motion_ddot": 0,
        "tle_line1": "1 29236U 06023A   25358.22144743 -.00000106  00000+0  00000+0 0  9999",
        "tle_line2": "2 29236   0.0389 202.1465 0002565  74.0463 157.5166  1.00271028 71219"
      },
      "geometry": {
        "type": "Point",
        "coordinates": [
          -144.78911715347053,
          -0.013297960427010884
        ]
      }
    },
    {
      "type": "Feature",
      "properties": {
        "norad_id": 29494,
        "name": "DIRECTV 9S",
        "group": "intelsat",
        "lat": 1.5033084626748043,
        "lon": -146.9663490678418,
        "alt_km": 35780.622403180525,
        "timestamp": "2025-12-24T14:43:28.663248+00:00",
        "meta_object_name": "DIRECTV 9S",
        "meta_object_id": "2006-043A",
        "meta_epoch": "2025-12-24T04:46:38.993952",
        "meta_mean_motion": 1.00271943,
        "meta_eccentricity": 0.00029439,
        "meta_inclination": 1.9679,
        "meta_ra_of_asc_node": 83.0909,
        "meta_arg_of_pericenter": 195.1538,
        "meta_mean_anomaly": 145.1911,
        "meta_ephemeris_type": 0,
        "meta_classification_type": "U",
        "meta_norad_cat_id": 29494,
        "meta_element_set_no": 999,
        "meta_rev_at_epoch": 4962,
        "meta_bstar": 0,
        "meta_mean_motion_dot": -9.3e-07,
        "meta_mean_motion_ddot": 0,
        "tle_line1": "1 29494U 06043A   25358.19906243 -.00000093  00000+0  00000+0 0  9999",
        "tle_line2": "2 29494   1.9679  83.0909 0002943 195.1538 145.1911  1.00271943 49621"
      },
      "geometry": {
        "type": "Point",
        "coordinates": [
          -146.9663490678418,
          1.5033084626748043
        ]
      }
    }
  ]
}